STARLINK-4602           
1 53629U 22104AT  25282.15966448  .00002722  00000+0  18905-3 0  9994
2 53629  53.2164 194.0455 0001584  99.8132 260.3039 15.08845673172882
STARLINK-4598           
1 53630U 22104AU  25282.12847553 -.00001399  00000+0 -69821-4 0  9993
2 53630  53.2169 184.5802 0001455  78.1902 281.9253 15.08838092173189
STARLINK-4599           
1 53631U 22104AV  25282.07869305 -.00000458  00000+0 -10663-4 0  9992
2 53631  53.2169 194.2504 0001319  85.6585 274.4558 15.08835427172875
STARLINK-4606           
1 53632U 22104AW  25282.12014584 -.00002004  00000+0 -10789-3 0  9997
2 53632  53.2170 184.5273 0001529  80.7422 279.3743 15.08832069173344
STARLINK-4593           
1 53633U 22104AX  25282.12383328 -.00001489  00000+0 -75457-4 0  9993
2 53633  53.2166 184.5508 0001496  85.8269 274.2895 15.08841036173019
STARLINK-4592           
1 53634U 22104AY  25282.11278029 -.00000708  00000+0 -26416-4 0  9998
2 53634  53.2157 184.4821 0001460  91.8061 268.3098 15.08835442173344
STARLINK-4587           
1 53635U 22104AZ  25282.11646489  .00002182  00000+0  15516-3 0  9992
2 53635  53.2156 184.5040 0001306  78.2972 281.8167 15.08827647173342
STARLINK-4586           
1 53636U 22104BA  25282.03918566  .00023760  00000+0  15040-2 0  9998
2 53636  53.2169 184.7330 0001409  78.0808 282.0342 15.08887464173331
STARLINK-4396           
1 53637U 22104BB  25282.13952707 -.00000747  00000+0 -28867-4 0  9990
2 53637  53.2156 184.6412 0001461  94.2146 265.9014 15.08836754173344
STARLINK-4594           
1 53638U 22104BC  25282.02074478 -.00001133  00000+0 -53118-4 0  9996
2 53638  53.2183 184.6233 0001498 100.7038 259.4123 15.08834126173338
STARLINK-4422           
1 53639U 22104BD  25282.03549006 -.00001177  00000+0 -55916-4 0  9998
2 53639  53.2189 184.7127 0001474  91.1205 268.9956 15.08828518173169
STARLINK-4597           
1 53640U 22104BE  25282.16427236 -.00006895  00000+0 -41530-3 0  9992
2 53640  53.2181 184.0932 0001782 110.1322 249.9862 15.08858269173356
STARLINK-4588           
1 53641U 22104BF  25282.10909606 -.00000647  00000+0 -22537-4 0  9999
2 53641  53.2165 184.4548 0001393  88.9880 271.1272 15.08833406173342
STARLINK-4622           
1 53648U 22105A   25282.21079295  .00000331  00000+0  30328-4 0  9996
2 53648  97.6013 161.9180 0003260  72.3344 287.8237 15.01256361170515
STARLINK-4386           
1 53649U 22105B   25282.25221123  .00039383  00000+0  27557-2 0  9997
2 53649  97.6008 162.0105 0002796  81.1308 279.0235 15.05141168170513
STARLINK-4380           
1 53650U 22105C   25282.20708815 -.00000325  00000+0 -20786-4 0  9997
2 53650  97.5998 161.9140 0003641  63.1148 297.0448 15.01262206170509
