[{"OBJECT_NAME":"STARLINK-4602","OBJECT_ID":"2022-104AT","EPOCH":"2025-10-09T03:49:55.011072","MEAN_MOTION":15.08845673,"ECCENTRICITY":0.00015849,"INCLINATION":53.2164,"RA_OF_ASC_NODE":194.0455,"ARG_OF_PERICENTER":99.8132,"MEAN_ANOMALY":260.3039,"EPHEMERIS_TYPE":0,"CLASSIFICATION_TYPE":"U","NORAD_CAT_ID":53629,"ELEMENT_SET_NO":999,"REV_AT_EPOCH":17288,"BSTAR":0.00018904834,"MEAN_MOTION_DOT":2.722e-5,"MEAN_MOTION_DDOT":0},{"OBJECT_NAME":"STARLINK-4598","OBJECT_ID":"2022-104AU","EPOCH":"2025-10-09T03:05:00.285792","MEAN_MOTION":15.08838092,"ECCENTRICITY":0.00014559,"INCLINATION":53.2169,"RA_OF_ASC_NODE":184.5802,"ARG_OF_PERICENTER":78.1902,"MEAN_ANOMALY":281.9253,"EPHEMERIS_TYPE":0,"CLASSIFICATION_TYPE":"U","NORAD_CAT_ID":53630,"ELEMENT_SET_NO":999,"REV_AT_EPOCH":17318,"BSTAR":-6.9820776e-5,"MEAN_MOTION_DOT":-1.399e-5,"MEAN_MOTION_DDOT":0},{"OBJECT_NAME":"STARLINK-4599","OBJECT_ID":"2022-104AV","EPOCH":"2025-10-09T01:53:19.079520","MEAN_MOTION":15.08835427,"ECCENTRICITY":0.0001319,"INCLINATION":53.2169,"RA_OF_ASC_NODE":194.2504,"ARG_OF_PERICENTER":85.6585,"MEAN_ANOMALY":274.4558,"EPHEMERIS_TYPE":0,"CLASSIFICATION_TYPE":"U","NORAD_CAT_ID":53631,"ELEMENT_SET_NO":999,"REV_AT_EPOCH":17287,"BSTAR":-1.0662898e-5,"MEAN_MOTION_DOT":-4.58e-6,"MEAN_MOTION_DDOT":0},{"OBJECT_NAME":"STARLINK-4606","OBJECT_ID":"2022-104AW","EPOCH":"2025-10-09T02:53:00.600576","MEAN_MOTION":15.08832069,"ECCENTRICITY":0.00015296,"INCLINATION":53.217,"RA_OF_ASC_NODE":184.5273,"ARG_OF_PERICENTER":80.7422,"MEAN_ANOMALY":279.3743,"EPHEMERIS_TYPE":0,"CLASSIFICATION_TYPE":"U","NORAD_CAT_ID":53632,"ELEMENT_SET_NO":999,"REV_AT_EPOCH":17334,"BSTAR":-0.00010788951,"MEAN_MOTION_DOT":-2.004e-5,"MEAN_MOTION_DDOT":0},{"OBJECT_NAME":"STARLINK-4593","OBJECT_ID":"2022-104AX","EPOCH":"2025-10-09T02:58:19.195392","MEAN_MOTION":15.08841036,"ECCENTRICITY":0.00014967,"INCLINATION":53.2166,"RA_OF_ASC_NODE":184.5508,"ARG_OF_PERICENTER":85.8269,"MEAN_ANOMALY":274.2895,"EPHEMERIS_TYPE":0,"CLASSIFICATION_TYPE":"U","NORAD_CAT_ID":53633,"ELEMENT_SET_NO":999,"REV_AT_EPOCH":17301,"BSTAR":-7.5456745e-5,"MEAN_MOTION_DOT":-1.489e-5,"MEAN_MOTION_DDOT":0},{"OBJECT_NAME":"STARLINK-4592","OBJECT_ID":"2022-104AY","EPOCH":"2025-10-09T02:42:24.217056","MEAN_MOTION":15.08835442,"ECCENTRICITY":0.00014601,"INCLINATION":53.2157,"RA_OF_ASC_NODE":184.4821,"ARG_OF_PERICENTER":91.8061,"MEAN_ANOMALY":268.3098,"EPHEMERIS_TYPE":0,"CLASSIFICATION_TYPE":"U","NORAD_CAT_ID":53634,"ELEMENT_SET_NO":999,"REV_AT_EPOCH":17334,"BSTAR":-2.6415839e-5,"MEAN_MOTION_DOT":-7.08e-6,"MEAN_MOTION_DDOT":0},{"OBJECT_NAME":"STARLINK-4587","OBJECT_ID":"2022-104AZ","EPOCH":"2025-10-09T02:47:42.566496","MEAN_MOTION":15.08827647,"ECCENTRICITY":0.00013069,"INCLINATION":53.2156,"RA_OF_ASC_NODE":184.504,"ARG_OF_PERICENTER":78.2972,"MEAN_ANOMALY":281.8167,"EPHEMERIS_TYPE":0,"CLASSIFICATION_TYPE":"U","NORAD_CAT_ID":53635,"ELEMENT_SET_NO":999,"REV_AT_EPOCH":17334,"BSTAR":0.00015516402,"MEAN_MOTION_DOT":2.182e-5,"MEAN_MOTION_DDOT":0},{"OBJECT_NAME":"STARLINK-4586","OBJECT_ID":"2022-104BA","EPOCH":"2025-10-09T00:56:25.641024","MEAN_MOTION":15.08887464,"ECCENTRICITY":0.00014091,"INCLINATION":53.2169,"RA_OF_ASC_NODE":184.733,"ARG_OF_PERICENTER":78.0808,"MEAN_ANOMALY":282.0342,"EPHEMERIS_TYPE":0,"CLASSIFICATION_TYPE":"U","NORAD_CAT_ID":53636,"ELEMENT_SET_NO":999,"REV_AT_EPOCH":17333,"BSTAR":0.0015039877,"MEAN_MOTION_DOT":0.0002376,"MEAN_MOTION_DDOT":0},{"OBJECT_NAME":"STARLINK-4396","OBJECT_ID":"2022-104BB","EPOCH":"2025-10-09T03:20:55.138848","MEAN_MOTION":15.08836754,"ECCENTRICITY":0.00014615,"INCLINATION":53.2156,"RA_OF_ASC_NODE":184.6412,"ARG_OF_PERICENTER":94.2146,"MEAN_ANOMALY":265.9014,"EPHEMERIS_TYPE":0,"CLASSIFICATION_TYPE":"U","NORAD_CAT_ID":53637,"ELEMENT_SET_NO":999,"REV_AT_EPOCH":17334,"BSTAR":-2.886736e-5,"MEAN_MOTION_DOT":-7.47e-6,"MEAN_MOTION_DDOT":0},{"OBJECT_NAME":"STARLINK-4594","OBJECT_ID":"2022-104BC","EPOCH":"2025-10-09T00:29:52.348992","MEAN_MOTION":15.08834126,"ECCENTRICITY":0.00014982,"INCLINATION":53.2183,"RA_OF_ASC_NODE":184.6233,"ARG_OF_PERICENTER":100.7038,"MEAN_ANOMALY":259.4123,"EPHEMERIS_TYPE":0,"CLASSIFICATION_TYPE":"U","NORAD_CAT_ID":53638,"ELEMENT_SET_NO":999,"REV_AT_EPOCH":17333,"BSTAR":-5.3118213e-5,"MEAN_MOTION_DOT":-1.133e-5,"MEAN_MOTION_DDOT":0},{"OBJECT_NAME":"STARLINK-4422","OBJECT_ID":"2022-104BD","EPOCH":"2025-10-09T00:51:06.341184","MEAN_MOTION":15.08828518,"ECCENTRICITY":0.00014748,"INCLINATION":53.2189,"RA_OF_ASC_NODE":184.7127,"ARG_OF_PERICENTER":91.1205,"MEAN_ANOMALY":268.9956,"EPHEMERIS_TYPE":0,"CLASSIFICATION_TYPE":"U","NORAD_CAT_ID":53639,"ELEMENT_SET_NO":999,"REV_AT_EPOCH":17316,"BSTAR":-5.591619e-5,"MEAN_MOTION_DOT":-1.177e-5,"MEAN_MOTION_DDOT":0},{"OBJECT_NAME":"STARLINK-4597","OBJECT_ID":"2022-104BE","EPOCH":"2025-10-09T03:56:33.131904","MEAN_MOTION":15.08858269,"ECCENTRICITY":0.00017824,"INCLINATION":53.2181,"RA_OF_ASC_NODE":184.0932,"ARG_OF_PERICENTER":110.1322,"MEAN_ANOMALY":249.9862,"EPHEMERIS_TYPE":0,"CLASSIFICATION_TYPE":"U","NORAD_CAT_ID":53640,"ELEMENT_SET_NO":999,"REV_AT_EPOCH":17335,"BSTAR":-0.00041530398,"MEAN_MOTION_DOT":-6.895e-5,"MEAN_MOTION_DDOT":0},{"OBJECT_NAME":"STARLINK-4588","OBJECT_ID":"2022-104BF","EPOCH":"2025-10-09T02:37:05.899584","MEAN_MOTION":15.08833406,"ECCENTRICITY":0.00013936,"INCLINATION":53.2165,"RA_OF_ASC_NODE":184.4548,"ARG_OF_PERICENTER":88.988,"MEAN_ANOMALY":271.1272,"EPHEMERIS_TYPE":0,"CLASSIFICATION_TYPE":"U","NORAD_CAT_ID":53641,"ELEMENT_SET_NO":999,"REV_AT_EPOCH":17334,"BSTAR":-2.2537388e-5,"MEAN_MOTION_DOT":-6.47e-6,"MEAN_MOTION_DDOT":0},{"OBJECT_NAME":"STARLINK-4622","OBJECT_ID":"2022-105A","EPOCH":"2025-10-09T05:03:32.510880","MEAN_MOTION":15.01256361,"ECCENTRICITY":0.00032607,"INCLINATION":97.6013,"RA_OF_ASC_NODE":161.918,"ARG_OF_PERICENTER":72.3344,"MEAN_ANOMALY":287.8237,"EPHEMERIS_TYPE":0,"CLASSIFICATION_TYPE":"U","NORAD_CAT_ID":53648,"ELEMENT_SET_NO":999,"REV_AT_EPOCH":17051,"BSTAR":3.0327621e-5,"MEAN_MOTION_DOT":3.31e-6,"MEAN_MOTION_DDOT":0},{"OBJECT_NAME":"STARLINK-4386","OBJECT_ID":"2022-105B","EPOCH":"2025-10-09T06:03:11.050272","MEAN_MOTION":15.05141168,"ECCENTRICITY":0.00027969,"INCLINATION":97.6008,"RA_OF_ASC_NODE":162.0105,"ARG_OF_PERICENTER":81.1308,"MEAN_ANOMALY":279.0235,"EPHEMERIS_TYPE":0,"CLASSIFICATION_TYPE":"U","NORAD_CAT_ID":53649,"ELEMENT_SET_NO":999,"REV_AT_EPOCH":17051,"BSTAR":0.0027556692,"MEAN_MOTION_DOT":0.00039383,"MEAN_MOTION_DDOT":0},{"OBJECT_NAME":"STARLINK-4380","OBJECT_ID":"2022-105C","EPOCH":"2025-10-09T04:58:12.416160","MEAN_MOTION":15.01262206,"ECCENTRICITY":0.00036419,"INCLINATION":97.5998,"RA_OF_ASC_NODE":161.914,"ARG_OF_PERICENTER":63.1148,"MEAN_ANOMALY":297.0448,"EPHEMERIS_TYPE":0,"CLASSIFICATION_TYPE":"U","NORAD_CAT_ID":53650,"ELEMENT_SET_NO":999,"REV_AT_EPOCH":17050,"BSTAR":-2.0786002e-5,"MEAN_MOTION_DOT":-3.25e-6,"MEAN_MOTION_DDOT":0}]
